SPOT 6                  
1 38755U 12047A   26186.30880784  .00000560  00000+0  13029-3 0  9991
2 38755  98.2109 253.4054 0001210  78.9033 281.2302 14.58534759735695
SPOT 7                  
1 40053U 14034A   26186.33107764  .00000551  00000+0  12157-3 0  9997
2 40053  98.0616 248.3551 0001486  98.0792 262.0578 14.60974897639784
