{"fetched_at":"2026-07-05T17:36:55.168Z","source":"https://celestrak.org/NORAD/elements/gp.php?NAME=SPOT&FORMAT=JSON","constellation":"spot","records":[{"OBJECT_NAME":"SPOT 6","OBJECT_ID":"2012-047A","EPOCH":"2026-07-05T07:24:40.997376","CLASSIFICATION_TYPE":"U","MEAN_MOTION":14.58534759,"ECCENTRICITY":0.00012104,"INCLINATION":98.2109,"RA_OF_ASC_NODE":253.4054,"ARG_OF_PERICENTER":78.9033,"MEAN_ANOMALY":281.2302,"EPHEMERIS_TYPE":0,"NORAD_CAT_ID":38755,"ELEMENT_SET_NO":999,"REV_AT_EPOCH":73569,"BSTAR":0.00013028879,"MEAN_MOTION_DOT":0.0000056,"MEAN_MOTION_DDOT":0},{"OBJECT_NAME":"SPOT 7","OBJECT_ID":"2014-034A","EPOCH":"2026-07-05T07:56:45.108096","CLASSIFICATION_TYPE":"U","MEAN_MOTION":14.60974897,"ECCENTRICITY":0.00014868,"INCLINATION":98.0616,"RA_OF_ASC_NODE":248.3551,"ARG_OF_PERICENTER":98.0792,"MEAN_ANOMALY":262.0578,"EPHEMERIS_TYPE":0,"NORAD_CAT_ID":40053,"ELEMENT_SET_NO":999,"REV_AT_EPOCH":63978,"BSTAR":0.00012156823,"MEAN_MOTION_DOT":0.00000551,"MEAN_MOTION_DDOT":0}]}
